{
  "norad_id": 51641,
  "name": "ONEWEB-0448",
  "history": [
    {
      "epoch": "2026-03-28T22:10:28.203456Z",
      "apogee_km": 1223.1243614981859,
      "perigee_km": 1220.3163661993913,
      "latitude_deg": -5.7856926026831154e-05,
      "longitude_deg": -106.69892686109448,
      "height_km": 1224.4455480306447,
      "semi_major_axis_km": 7599.857363848789,
      "eccentricity": 0.00018474,
      "inclination_deg": 87.8804,
      "raan_deg": 52.256,
      "arg_perigee_deg": 83.4839,
      "mean_anomaly_deg": 276.6498,
      "mean_motion_rev_day": 13.10371986
    },
    {
      "epoch": "2026-03-29T03:40:20.033760Z",
      "apogee_km": 1223.1257767129118,
      "perigee_km": 1220.313829695725,
      "latitude_deg": 1.1231948387843535e-05,
      "longitude_deg": 170.5638323566367,
      "height_km": 1224.445703780779,
      "semi_major_axis_km": 7599.856803204318,
      "eccentricity": 0.000185,
      "inclination_deg": 87.8804,
      "raan_deg": 52.2105,
      "arg_perigee_deg": 83.5231,
      "mean_anomaly_deg": 276.6107,
      "mean_motion_rev_day": 13.10372131
    },
    {
      "epoch": "2026-03-30T03:29:45.092256Z",
      "apogee_km": 1223.1218054205956,
      "perigee_km": 1220.3417734174263,
      "latitude_deg": -7.0500562163268e-05,
      "longitude_deg": 172.03321793630076,
      "height_km": 1224.4718390942278,
      "semi_major_axis_km": 7599.868789419011,
      "eccentricity": 0.0001829,
      "inclination_deg": 87.8807,
      "raan_deg": 52.0127,
      "arg_perigee_deg": 84.0332,
      "mean_anomaly_deg": 276.1003,
      "mean_motion_rev_day": 13.10369031
    }
  ]
}